0 SL-16 DEB
1 22431U 92093DY  13282.15499540  .00068525  00000-0  85031-2 0  8666
2 22431 070.8658 300.0319 0036881 055.5996 304.8639 14.81743833 73510
0 SL-16 DEB
1 22431U 92093DY  13283.10008376  .00057621  00000-0  71439-2 0  8678
2 22431 070.8659 297.8065 0036836 053.7606 306.6946 14.81853749 73654
0 SL-16 DEB
1 22431U 92093DY  13284.18011049  .00057881  00000-0  71607-2 0  8684
2 22431 070.8658 295.2631 0036818 052.0068 308.4404 14.81942026 73812
0 SL-16 DEB
1 22431U 92093DY  13286.13748600  .00055941  00000-0  68918-2 0  8700
2 22431 070.8653 290.6529 0036939 048.6235 311.8087 14.82125627 74102
0 SL-16 DEB
1 22431U 92093DY  13287.14982423  .00054280  00000-0  66751-2 0  8714
2 22431 070.8649 288.2677 0036883 047.0799 313.3443 14.82213691 74258
0 SL-16 DEB
1 22431U 92093DY  13287.82468022  .00080570  00000-0  98475-2 0  8723
2 22431 070.8647 286.6772 0036745 046.2424 314.1763 14.82299582 74355
0 SL-16 DEB
1 22431U 92093DY  13289.10677647  .00085394  00000-0  10383-1 0  8732
2 22431 070.8643 283.6547 0036556 044.3592 316.0484 14.82490046 74543
0 SL-16 DEB
1 22431U 92093DY  13289.78150450  .00092511  00000-0  11216-1 0  8740
2 22431 070.8640 282.0647 0036640 043.3321 317.0706 14.82562837 74644
0 SL-16 DEB
1 22431U 92093DY  13290.11885499  .00079543  00000-0  96532-2 0  8753
2 22431 070.8644 281.2686 0036498 042.8664 317.5328 14.82607351 74698
0 SL-16 DEB
1 22431U 92093DY  13291.13084445  .00075119  00000-0  90887-2 0  8761
2 22431 070.8646 278.8822 0036720 041.1376 319.2538 14.82755323 74846
0 SL-16 DEB
1 22431U 92093DY  13292.07528040  .00070711  00000-0  85362-2 0  8775
2 22431 070.8646 276.6547 0036453 039.8883 320.4942 14.82883670 74981
0 SL-16 DEB
1 22431U 92093DY  13293.08708280  .00074469  00000-0  89556-2 0  8787
2 22431 070.8649 274.2671 0036153 038.5356 321.8371 14.83025412 75136
0 SL-16 DEB
1 22431U 92093DY  13294.09878997  .00085351  00000-0  10213-1 0  8798
2 22431 070.8647 271.8796 0036259 037.1306 323.2349 14.83161069 75288
0 SL-16 DEB
1 22431U 92093DY  13295.31270868  .00100484  00000-0  11950-1 0  8803
2 22431 070.8647 269.0147 0035913 035.5796 324.7745 14.83331076 75461
0 SL-16 DEB
1 22431U 92093DY  13296.05447921  .00096044  00000-0  11397-1 0  8813
2 22431 070.8645 267.2642 0035816 034.5704 325.7772 14.83451153 75571
